NORAD_CAT_ID,OBJECT_NAME,OBJECT_TYPE,EPOCH,MEAN_MOTION,ECCENTRICITY,INCLINATION,RA_OF_ASC_NODE,ARG_OF_PERICENTER,MEAN_ANOMALY,BSTAR,MEAN_MOTION_DOT,MEAN_MOTION_DDOT,TLE_LINE0,TLE_LINE1,TLE_LINE2,SEMIMAJOR_AXIS,PERIOD,APOGEE,PERIGEE,DECAYED
53177.0,STARLINK-4298,PAYLOAD,2023-02-22 19:30:08,15.08841656,0.0001444,53.2181,86.0404,87.9502,272.1655,-6.0196e-05,-1.246e-05,0.0,0 STARLINK-4298,1 53177U 22083AX  23053.81260381 -.00001246  00000-0 -60196-4 0  9991,2 53177  53.2181  86.0404 0001444  87.9502 272.1655 15.08841656 33997,6917.875,95.437,540.739,538.741,0.0
53177.0,STARLINK-4298,PAYLOAD,2023-02-23 01:51:41,15.08834735,0.0001652,53.2183,84.8509,80.6878,279.4301,1.6094e-05,-3.2e-07,0.0,0 STARLINK-4298,1 53177U 22083AX  23054.07756714 -.00000032  00000-0  16094-4 0  9999,2 53177  53.2183  84.8509 0001652  80.6878 279.4301 15.08834735 34672,6917.896,95.438,540.904,538.619,0.0
53177.0,STARLINK-4298,PAYLOAD,2023-02-23 12:59:22,15.08845533,0.0001635,53.2183,82.7695,77.735,282.3826,9.3016e-05,1.193e-05,0.0,0 STARLINK-4298,1 53177U 22083AX  23054.54123789  .00001193  00000-0  93016-4 0  9998,2 53177  53.2183  82.7695 0001635  77.7350 282.3826 15.08845533 34109,6917.863,95.437,540.86,538.597,0.0
53177.0,STARLINK-4298,PAYLOAD,2023-02-23 19:20:55,15.08842249,0.0001718,53.2193,81.5783,78.6152,281.5033,-2.2007e-05,-6.38e-06,0.0,0 STARLINK-4298,1 53177U 22083AX  23054.80620297 -.00000638  00000-0 -22007-4 0  9990,2 53177  53.2193  81.5783 0001718  78.6152 281.5033 15.08842249 34143,6917.874,95.437,540.927,538.55,0.0
53177.0,STARLINK-4298,PAYLOAD,2023-02-24 11:14:46,15.08851581,0.0001435,53.2185,78.6051,90.9163,269.1994,7.0047e-05,8.27e-06,0.0,0 STARLINK-4298,1 53177U 22083AX  23055.46859299  .00000827  00000-0  70047-4 0  9994,2 53177  53.2185  78.6051 0001435  90.9163 269.1994 15.08851581 34882,6917.845,95.437,540.703,538.717,0.0
53177.0,STARLINK-4298,PAYLOAD,2023-02-25 04:44:02,15.08829478,0.0001578,53.2184,75.3335,92.2835,267.8338,-6.252e-05,-1.283e-05,0.0,0 STARLINK-4298,1 53177U 22083AX  23056.19725374 -.00001283  00000-0 -62520-4 0  9997,2 53177  53.2184  75.3335 0001578  92.2835 267.8338 15.08829478 34998,6917.913,95.438,540.869,538.686,0.0
53177.0,STARLINK-4298,PAYLOAD,2023-02-25 11:05:35,15.08834741,0.0001409,53.2182,74.143,86.8678,273.2475,-6.8504e-05,-1.378e-05,0.0,0 STARLINK-4298,1 53177U 22083AX  23056.46221221 -.00001378  00000-0 -68504-4 0  9992,2 53177  53.2182  74.1430 0001409  86.8678 273.2475 15.08834741 34392,6917.896,95.438,540.736,538.787,0.0
53177.0,STARLINK-4298,PAYLOAD,2023-02-26 01:24:02,15.08837406,0.0001309,53.2174,71.4681,82.8463,277.2678,4.1341e-05,3.7e-06,0.0,0 STARLINK-4298,1 53177U 22083AX  23057.05836784  .00000370  00000-0  41341-4 0  9993,2 53177  53.2174  71.4681 0001309  82.8463 277.2678 15.08837406 35120,6917.888,95.438,540.659,538.848,0.0
53177.0,STARLINK-4298,PAYLOAD,2023-02-26 10:56:20,15.08857822,0.0001435,53.2177,69.6855,85.0574,275.0582,0.00010119,1.324e-05,0.0,0 STARLINK-4298,1 53177U 22083AX  23057.45579296  .00001324  00000-0  10119-3 0  9997,2 53177  53.2177  69.6855 0001435  85.0574 275.0582 15.08857822 35183,6917.826,95.436,540.684,538.698,0.0
53177.0,STARLINK-4298,PAYLOAD,2023-02-26 17:17:54,15.08835433,0.0001495,53.2195,68.4957,96.0327,264.0836,-8.9845e-05,-1.717e-05,0.0,0 STARLINK-4298,1 53177U 22083AX  23057.72077117 -.00001717  00000-0 -89845-4 0  9993,2 53177  53.2195  68.4957 0001495  96.0327 264.0836 15.08835433 35226,6917.894,95.438,540.794,538.725,0.0
53177.0,STARLINK-4298,PAYLOAD,2023-02-27 09:11:45,15.08836665,0.0001639,53.2181,65.5226,81.7181,278.3997,0.0001057,1.394e-05,0.0,0 STARLINK-4298,1 53177U 22083AX  23058.38317110  .00001394  00000-0  10570-3 0  9993,2 53177  53.2181  65.5226 0001639  81.7181 278.3997 15.08836665 34680,6917.891,95.438,540.889,538.622,0.0
53177.0,STARLINK-4298,PAYLOAD,2023-02-27 17:08:41,15.08844461,0.0001538,53.2189,64.0355,89.3347,270.7821,0.00010924,1.451e-05,0.0,0 STARLINK-4298,1 53177U 22083AX  23058.71436612  .00001451  00000-0  10924-3 0  9996,2 53177  53.2189  64.0355 0001538  89.3347 270.7821 15.08844461 35373,6917.867,95.437,540.796,538.668,0.0
53177.0,STARLINK-4298,PAYLOAD,2023-02-28 02:40:58,15.08857671,0.0001469,53.2186,62.2509,90.3084,269.8076,0.00017156,2.445e-05,0.0,0 STARLINK-4298,1 53177U 22083AX  23059.11179384  .00002445  00000-0  17156-3 0  9999,2 53177  53.2186  62.2509 0001469  90.3084 269.8076 15.08857671 35439,6917.826,95.436,540.708,538.675,0.0
53177.0,STARLINK-4298,PAYLOAD,2023-02-28 09:02:30,15.08872264,0.0001525,53.2177,61.0611,91.9208,268.1959,0.00029718,4.449e-05,0.0,0 STARLINK-4298,1 53177U 22083AX  23059.37674629  .00004449  00000-0  29718-3 0  9992,2 53177  53.2177  61.0611 0001525  91.9208 268.1959 15.08872264 35479,6917.782,95.436,540.702,538.592,0.0
53177.0,STARLINK-4298,PAYLOAD,2023-02-28 16:59:28,15.08836829,0.0001988,53.2189,59.5736,79.0354,281.0861,-0.00020498,-3.549e-05,0.0,0 STARLINK-4298,1 53177U 22083AX  23059.70796447 -.00003549  00000-0 -20498-3 0  9990,2 53177  53.2189  59.5736 0001988  79.0354 281.0861 15.08836829 34881,6917.89,95.438,541.13,538.38,0.0
53177.0,STARLINK-4298,PAYLOAD,2023-03-01 02:31:48,15.08802909,0.0001682,53.2171,57.7913,86.9643,273.1541,-0.00044987,-7.433e-05,0.0,0 STARLINK-4298,1 53177U 22083AX  23060.10542631 -.00007433  00000-0 -44987-3 0  9995,2 53177  53.2171  57.7913 0001682  86.9643 273.1541 15.08802909 35585,6917.994,95.44,541.022,538.695,0.0
53177.0,STARLINK-4298,PAYLOAD,2023-03-01 08:53:17,15.08937447,5.39e-05,53.2177,56.6014,115.3526,244.7522,0.0031746,0.00050735,0.0,0 STARLINK-4298,1 53177U 22083AX  23060.37034067  .00050735  00000-0  31746-2 0  9992,2 53177  53.2177  56.6014 0000539 115.3526 244.7522 15.08937447 35622,6917.583,95.431,539.82,539.075,0.0
53177.0,STARLINK-4298,PAYLOAD,2023-03-01 16:50:08,15.09100796,0.0001285,53.2176,55.1144,82.5208,277.5931,0.008826,0.0014409,0.0,0 STARLINK-4298,1 53177U 22083AX  23060.70148955  .00144090  00000-0  88260-2 0  9992,2 53177  53.2176  55.1144 0001285  82.5208 277.5931 15.09100796 35673,6917.083,95.421,539.837,538.06,0.0
53177.0,STARLINK-4298,PAYLOAD,2023-03-01 23:11:33,15.09277815,0.0001531,53.2177,53.9246,52.5385,307.5746,0.011316,0.00186849,0.0,0 STARLINK-4298,1 53177U 22083AX  23060.96636067  .00186849  00000-0  11316-1 0  9991,2 53177  53.2177  53.9246 0001531  52.5385 307.5746 15.09277815 35710,6916.542,95.41,539.466,537.349,0.0
53177.0,STARLINK-4298,PAYLOAD,2023-03-02 16:40:14,15.09601213,0.000128,53.2171,50.6506,77.1122,283.0014,0.004297,0.00070234,0.0,0 STARLINK-4298,1 53177U 22083AX  23061.69461591  .00070234  00000-0  42970-2 0  9991,2 53177  53.2171  50.6506 0001280  77.1122 283.0014 15.09601213 35821,6915.555,95.389,538.305,536.534,0.0
53177.0,STARLINK-4298,PAYLOAD,2023-03-03 08:33:38,15.09481618,0.0001657,53.2181,47.675,76.6366,283.4811,-0.0049363,-0.00079367,0.0,0 STARLINK-4298,1 53177U 22083AX  23062.35669912 -.00079367  00000-0 -49363-2 0  9993,2 53177  53.2181  47.6750 0001657  76.6366 283.4811 15.09481618 35926,6915.92,95.397,538.931,536.639,0.0
53177.0,STARLINK-4298,PAYLOAD,2023-03-03 13:19:44,15.09329077,0.0001766,53.2191,46.7828,70.8505,289.2678,-0.0086254,-0.00136789,0.0,0 STARLINK-4298,1 53177U 22083AX  23062.55537118 -.00136789  00000-0 -86254-2 0  9999,2 53177  53.2191  46.7828 0001766  70.8505 289.2678 15.09329077 35953,6916.386,95.407,539.472,537.029,0.0
53177.0,STARLINK-4298,PAYLOAD,2023-03-03 16:30:28,15.09221546,0.0001138,53.2193,46.1877,80.3714,279.7407,-0.010625,-0.00167221,0.0,0 STARLINK-4298,1 53177U 22083AX  23062.68782829 -.00167221  00000-0 -10625-1 0  9997,2 53177  53.2193  46.1877 0001138  80.3714 279.7407 15.09221546 35972,6916.714,95.413,539.367,537.792,0.0
53177.0,STARLINK-4298,PAYLOAD,2023-03-04 02:02:44,15.09017095,0.0001492,53.219,44.403,99.0489,261.0672,-0.0091413,-0.0014358,0.0,0 STARLINK-4298,1 53177U 22083AX  23063.08523747 -.00143580  00000-0 -91413-2 0  9991,2 53177  53.2190  44.4030 0001492  99.0489 261.0672 15.09017095 36038,6917.339,95.426,540.236,538.172,0.0
53177.0,STARLINK-4298,PAYLOAD,2023-03-04 09:59:40,15.08916291,0.0001731,53.2191,42.9156,84.2263,275.8927,-0.0047971,-0.00075988,0.0,0 STARLINK-4298,1 53177U 22083AX  23063.41643812 -.00075988  00000-0 -47971-2 0  9990,2 53177  53.2191  42.9156 0001731  84.2263 275.8927 15.08916291 36089,6917.647,95.433,540.71,538.315,0.0
53177.0,STARLINK-4298,PAYLOAD,2023-03-04 22:42:45,15.08866744,0.0001652,53.219,40.5375,85.0945,275.0236,-0.00242,-0.00038624,0.0,0 STARLINK-4298,1 53177U 22083AX  23063.94636503 -.00038624  00000-0 -24200-2 0  9993,2 53177  53.2190  40.5375 0001652  85.0945 275.0236 15.08866744 35523,6917.799,95.436,540.806,538.521,0.0
53177.0,STARLINK-4298,PAYLOAD,2023-03-05 11:25:52,15.08853555,0.0001684,53.2182,38.1601,91.6543,268.4643,0.0010684,0.00016763,0.0,0 STARLINK-4298,1 53177U 22083AX  23064.47629708  .00016763  00000-0  10684-2 0  9990,2 53177  53.2182  38.1601 0001684  91.6543 268.4643 15.08853555 36245,6917.839,95.437,540.869,538.539,0.0
53177.0,STARLINK-4298,PAYLOAD,2023-03-06 01:44:20,15.0885219,0.0001626,53.2191,35.4821,90.6417,269.4762,0.00074324,0.00011564,0.0,0 STARLINK-4298,1 53177U 22083AX  23065.07245751  .00011564  00000-0  74324-3 0  9995,2 53177  53.2191  35.4821 0001626  90.6417 269.4762 15.08852190 36331,6917.843,95.437,540.833,538.583,0.0
53177.0,STARLINK-4298,PAYLOAD,2023-03-06 06:30:29,15.08882665,0.0001644,53.2187,34.5909,103.0469,257.0707,0.0017184,0.00027198,0.0,0 STARLINK-4298,1 53177U 22083AX  23065.27117169  .00027198  00000-0  17184-2 0  9998,2 53177  53.2187  34.5909 0001644 103.0469 257.0707 15.08882665 36364,6917.75,95.435,540.752,538.478,0.0
53177.0,STARLINK-4298,PAYLOAD,2023-03-06 22:24:21,15.08836968,0.0001816,53.2187,31.6177,126.8709,233.245,0.00088519,0.00013827,0.0,0 STARLINK-4298,1 53177U 22083AX  23065.93357758  .00013827  00000-0  88519-3 0  9996,2 53177  53.2187  31.6177 0001816 126.8709 233.2450 15.08836968 35826,6917.89,95.438,541.011,538.498,0.0
